[{"OBJECT_NAME":"GLOBALSTAR M096","OBJECT_ID":"2013-005D","EPOCH":"2026-04-05T14:48:05.745024","MEAN_MOTION":12.6226394,"ECCENTRICITY":4.39e-5,"INCLINATION":52.0078,"RA_OF_ASC_NODE":60.4956,"ARG_OF_PERICENTER":96.8954,"MEAN_ANOMALY":263.1963,"EPHEMERIS_TYPE":0,"CLASSIFICATION_TYPE":"U","NORAD_CAT_ID":39075,"ELEMENT_SET_NO":999,"REV_AT_EPOCH":60822,"BSTAR":-6.6618e-5,"MEAN_MOTION_DOT":-1.16e-6,"MEAN_MOTION_DDOT":0},{"OBJECT_NAME":"GLOBALSTAR M078","OBJECT_ID":"2013-005E","EPOCH":"2026-04-05T10:21:15.872544","MEAN_MOTION":12.62276961,"ECCENTRICITY":0.0001244,"INCLINATION":51.9857,"RA_OF_ASC_NODE":145.1712,"ARG_OF_PERICENTER":108.6082,"MEAN_ANOMALY":251.492,"EPHEMERIS_TYPE":0,"CLASSIFICATION_TYPE":"U","NORAD_CAT_ID":39076,"ELEMENT_SET_NO":999,"REV_AT_EPOCH":60682,"BSTAR":0.00041581915,"MEAN_MOTION_DOT":-2.9e-7,"MEAN_MOTION_DDOT":0},{"OBJECT_NAME":"GLOBALSTAR M095","OBJECT_ID":"2013-005F","EPOCH":"2026-04-05T09:05:42.832608","MEAN_MOTION":12.62267183,"ECCENTRICITY":7.713e-5,"INCLINATION":52.0065,"RA_OF_ASC_NODE":142.8329,"ARG_OF_PERICENTER":131.3052,"MEAN_ANOMALY":228.7881,"EPHEMERIS_TYPE":0,"CLASSIFICATION_TYPE":"U","NORAD_CAT_ID":39077,"ELEMENT_SET_NO":999,"REV_AT_EPOCH":60667,"BSTAR":0.00015258374,"MEAN_MOTION_DOT":-7.6e-7,"MEAN_MOTION_DDOT":0},{"OBJECT_NAME":"GLOBALSTAR M087","OBJECT_ID":"2022-064A","EPOCH":"2026-04-05T18:55:14.505312","MEAN_MOTION":12.62267952,"ECCENTRICITY":9.11e-5,"INCLINATION":51.9996,"RA_OF_ASC_NODE":282.8698,"ARG_OF_PERICENTER":114.5579,"MEAN_ANOMALY":245.5383,"EPHEMERIS_TYPE":0,"CLASSIFICATION_TYPE":"U","NORAD_CAT_ID":52888,"ELEMENT_SET_NO":999,"REV_AT_EPOCH":18199,"BSTAR":1.3655e-5,"MEAN_MOTION_DOT":-1.01e-6,"MEAN_MOTION_DDOT":0}]
