GLOBALSTAR M096         
1 39075U 13005D   26095.61673316 -.00000116  00000+0 -66618-4 0  9998
2 39075  52.0078  60.4956 0000439  96.8954 263.1963 12.62263940608228
GLOBALSTAR M078         
1 39076U 13005E   26095.43143371 -.00000029  00000+0  41582-3 0  9996
2 39076  51.9857 145.1712 0001244 108.6082 251.4920 12.62276961606826
GLOBALSTAR M095         
1 39077U 13005F   26095.37896797 -.00000076  00000+0  15258-3 0  9990
2 39077  52.0065 142.8329 0000771 131.3052 228.7881 12.62267183606674
GLOBALSTAR M087         
1 52888U 22064A   26095.78836233 -.00000101  00000+0  13655-4 0  9993
2 52888  51.9996 282.8698 0000911 114.5579 245.5383 12.62267952181998
